OBJECT B                
1 51825U 22019B   26015.93704395  .00028920  00000+0  42562-3 0  9991
2 51825  97.3638 101.5043 0007069 330.4401  29.6453 15.55378558215953
